{
    "links": {
        "self": "http://www.neowsapp.com/rest/v1/neo/3781317?api_key=iIulBulltgU6a56xZRHN4H3l9WmuAYTsLGpBGhQ2"
    },
    "id": "3781317",
    "neo_reference_id": "3781317",
    "name": "(2017 QV35)",
    "designation": "2017 QV35",
    "nasa_jpl_url": "http://ssd.jpl.nasa.gov/sbdb.cgi?sstr=3781317",
    "absolute_magnitude_h": 23.8,
    "estimated_diameter": {
        "kilometers": {
            "estimated_diameter_min": 0.046190746,
            "estimated_diameter_max": 0.1032856481
        },
        "meters": {
            "estimated_diameter_min": 46.1907460282,
            "estimated_diameter_max": 103.2856480504
        },
        "miles": {
            "estimated_diameter_min": 0.0287015901,
            "estimated_diameter_max": 0.0641787064
        },
        "feet": {
            "estimated_diameter_min": 151.544447199,
            "estimated_diameter_max": 338.8636855496
        }
    },
    "is_potentially_hazardous_asteroid": false,
    "close_approach_data": [
        {
            "close_approach_date": "2017-08-11",
            "close_approach_date_full": "2017-Aug-11 06:30",
            "epoch_date_close_approach": 1502433000000,
            "relative_velocity": {
                "kilometers_per_second": "7.0619524088",
                "kilometers_per_hour": "25423.0286716307",
                "miles_per_hour": "15796.8813432141"
            },
            "miss_distance": {
                "astronomical": "0.170185576",
                "lunar": "66.202189064",
                "kilometers": "25459399.67432312",
                "miles": "15819737.386654256"
            },
            "orbiting_body": "Earth"
        }
    ],
    "orbital_data": {
        "orbit_id": "3",
        "orbit_determination_date": "2017-12-25 06:24:18",
        "first_observation_date": "2017-08-31",
        "last_observation_date": "2017-09-16",
        "data_arc_in_days": 16,
        "observations_used": 15,
        "orbit_uncertainty": "8",
        "minimum_orbit_intersection": ".127817",
        "jupiter_tisserand_invariant": "3.265",
        "epoch_osculation": "2457998.5",
        "eccentricity": ".5384669037349752",
        "semi_major_axis": "2.467742109108329",
        "inclination": "4.907170188484116",
        "ascending_node_longitude": "154.7395586572084",
        "orbital_period": "1415.950544011367",
        "perihelion_distance": "1.13894465640035",
        "perihelion_argument": "174.6537044538568",
        "aphelion_distance": "3.796539561816309",
        "perihelion_time": "2457981.647114503944",
        "mean_anomaly": "4.284781558395626",
        "mean_motion": ".2542461680759875",
        "equinox": "J2000",
        "orbit_class": {
            "orbit_class_type": "AMO",
            "orbit_class_description": "Near-Earth asteroid orbits similar to that of 1221 Amor",
            "orbit_class_range": "1.017 AU < q (perihelion) < 1.3 AU"
        }
    },
    "is_sentry_object": false
}